start=new Date('2022-06-26T00:00:00.000Z').valueOf();
sats=[{"OBJECT_NAME":"STARLINK-3965","CLASSIFICATION_TYPE":"U","MEAN_ANOMALY":"49.7184","APOAPSIS":"452.784","MEAN_MOTION_DDOT":"0.0000000000000","ECCENTRICITY":"0.00014130","GP_ID":"206857993","MEAN_MOTION_DOT":"-0.00718429","SITE":"AFWTR","INCLINATION":"53.2174","REF_FRAME":"TEME","SEMIMAJOR_AXIS":"6829.954","COUNTRY_CODE":"US","MEAN_ELEMENT_THEORY":"SGP4","TLE_LINE1":"1 52550U 22051T   22176.91667824 -.00718429  00000-0 -20450-1 0  9993","OBJECT_ID":"2022-051T","TLE_LINE2":"2 52550  53.2174  83.8163 0001413  53.8102  49.7184 15.38070033  1305","OBJECT_TYPE":"PAYLOAD","MEAN_MOTION":"15.38070033","CENTER_NAME":"EARTH","ELEMENT_SET_NO":"999","DECAY_DATE":null,"FILE":"3502557","RCS_SIZE":"LARGE","PERIOD":"93.624","LAUNCH_DATE":"2022-05-13","TIME_SYSTEM":"UTC","EPHEMERIS_TYPE":"0","RA_OF_ASC_NODE":"83.8163","NORAD_CAT_ID":"52550","EPOCH":"2022-06-25T22:00:00.999936","BSTAR":"-0.02045000000000","PERIAPSIS":"450.854","ARG_OF_PERICENTER":"53.8102","REV_AT_EPOCH":"130"},{"MEAN_MOTION_DDOT":"0.0000000000000","ECCENTRICITY":"0.00013530","GP_ID":"206858096","MEAN_ANOMALY":"34.4150","APOAPSIS":"453.916","CLASSIFICATION_TYPE":"U","OBJECT_NAME":"STARLINK-3969","COUNTRY_CODE":"US","SEMIMAJOR_AXIS":"6831.127","TLE_LINE1":"1 52551U 22051U   22176.91667824 -.00718941  00000-0 -20733-1 0  9997","MEAN_ELEMENT_THEORY":"SGP4","OBJECT_ID":"2022-051U","REF_FRAME":"TEME","SITE":"AFWTR","INCLINATION":"53.2174","MEAN_MOTION_DOT":"-0.00718941","FILE":"3502557","DECAY_DATE":null,"MEAN_MOTION":"15.37673887","CENTER_NAME":"EARTH","ELEMENT_SET_NO":"999","TLE_LINE2":"2 52551  53.2174  83.7992 0001353  56.2104  34.4150 15.37673887  1306","OBJECT_TYPE":"PAYLOAD","ARG_OF_PERICENTER":"56.2104","PERIAPSIS":"452.068","REV_AT_EPOCH":"130","RA_OF_ASC_NODE":"83.7992","EPHEMERIS_TYPE":"0","EPOCH":"2022-06-25T22:00:00.999936","NORAD_CAT_ID":"52551","BSTAR":"-0.02073300000000","RCS_SIZE":"LARGE","LAUNCH_DATE":"2022-05-13","PERIOD":"93.648","TIME_SYSTEM":"UTC"},{"RCS_SIZE":"LARGE","LAUNCH_DATE":"2022-05-13","PERIOD":"93.588","TIME_SYSTEM":"UTC","EPHEMERIS_TYPE":"0","RA_OF_ASC_NODE":"83.8416","NORAD_CAT_ID":"52552","EPOCH":"2022-06-25T22:00:00.999936","BSTAR":"-0.02004300000000","REV_AT_EPOCH":"130","PERIAPSIS":"449.071","ARG_OF_PERICENTER":"53.8341","TLE_LINE2":"2 52552  53.2174  83.8416 0001448  53.8341  68.3560 15.38664437  1303","OBJECT_TYPE":"PAYLOAD","MEAN_MOTION":"15.38664437","CENTER_NAME":"EARTH","ELEMENT_SET_NO":"999","DECAY_DATE":null,"FILE":"3502557","MEAN_MOTION_DOT":"-0.00718040","SITE":"AFWTR","INCLINATION":"53.2174","REF_FRAME":"TEME","COUNTRY_CODE":"US","SEMIMAJOR_AXIS":"6828.195","MEAN_ELEMENT_THEORY":"SGP4","TLE_LINE1":"1 52552U 22051V   22176.91667824 -.00718040  00000-0 -20043-1 0  9992","OBJECT_ID":"2022-051V","OBJECT_NAME":"STARLINK-3966","CLASSIFICATION_TYPE":"U","MEAN_ANOMALY":"68.3560","APOAPSIS":"451.048","MEAN_MOTION_DDOT":"0.0000000000000","ECCENTRICITY":"0.00014480","GP_ID":"206857890"},{"APOAPSIS":"453.367","MEAN_ANOMALY":"44.8078","GP_ID":"206858613","ECCENTRICITY":"0.00014080","MEAN_MOTION_DDOT":"0.0000000000000","OBJECT_NAME":"STARLINK-3858","CLASSIFICATION_TYPE":"U","REF_FRAME":"TEME","OBJECT_ID":"2022-051W","MEAN_ELEMENT_THEORY":"SGP4","TLE_LINE1":"1 52553U 22051W   22176.91667824 -.00718685  00000-0 -20591-1 0  9996","COUNTRY_CODE":"US","SEMIMAJOR_AXIS":"6830.540","MEAN_MOTION_DOT":"-0.00718685","INCLINATION":"53.2174","SITE":"AFWTR","DECAY_DATE":null,"FILE":"3502557","OBJECT_TYPE":"PAYLOAD","TLE_LINE2":"2 52553  53.2174  83.8078 0001408  52.3154  44.8078 15.37871954  1306","ELEMENT_SET_NO":"999","CENTER_NAME":"EARTH","MEAN_MOTION":"15.37871954","BSTAR":"-0.02059100000000","NORAD_CAT_ID":"52553","EPOCH":"2022-06-25T22:00:00.999936","RA_OF_ASC_NODE":"83.8078","EPHEMERIS_TYPE":"0","REV_AT_EPOCH":"130","PERIAPSIS":"451.444","ARG_OF_PERICENTER":"52.3154","PERIOD":"93.636","LAUNCH_DATE":"2022-05-13","TIME_SYSTEM":"UTC","RCS_SIZE":"LARGE"},{"CLASSIFICATION_TYPE":"U","OBJECT_NAME":"STARLINK-3770","GP_ID":"206858340","ECCENTRICITY":"0.00019420","MEAN_MOTION_DDOT":"0.0000000000000","APOAPSIS":"522.590","MEAN_ANOMALY":"88.1538","INCLINATION":"53.2173","SITE":"AFWTR","MEAN_MOTION_DOT":"-0.00845792","OBJECT_ID":"2022-051X","TLE_LINE1":"1 52554U 22051X   22176.91667824 -.00845792  00000-0 -48172-1 0  9992","MEAN_ELEMENT_THEORY":"SGP4","SEMIMAJOR_AXIS":"6899.385","COUNTRY_CODE":"US","REF_FRAME":"TEME","ELEMENT_SET_NO":"999","CENTER_NAME":"EARTH","MEAN_MOTION":"15.14911284","OBJECT_TYPE":"PAYLOAD","TLE_LINE2":"2 52554  53.2173  87.0388 0001942  37.0701  88.1538 15.14911284  1305","FILE":"3502557","DECAY_DATE":null,"PERIOD":"95.055","LAUNCH_DATE":"2022-05-13","TIME_SYSTEM":"UTC","RCS_SIZE":"LARGE","REV_AT_EPOCH":"130","PERIAPSIS":"519.910","ARG_OF_PERICENTER":"37.0701","BSTAR":"-0.04817200000000","EPOCH":"2022-06-25T22:00:00.999936","NORAD_CAT_ID":"52554","EPHEMERIS_TYPE":"0","RA_OF_ASC_NODE":"87.0388"},{"MEAN_ANOMALY":"54.3032","APOAPSIS":"452.181","MEAN_MOTION_DDOT":"0.0000000000000","ECCENTRICITY":"0.00013890","GP_ID":"206858443","OBJECT_NAME":"STARLINK-3949","CLASSIFICATION_TYPE":"U","REF_FRAME":"TEME","SEMIMAJOR_AXIS":"6829.367","COUNTRY_CODE":"US","TLE_LINE1":"1 52555U 22051Y   22176.91667824 -.00718340  00000-0 -20315-1 0  9990","MEAN_ELEMENT_THEORY":"SGP4","OBJECT_ID":"2022-051Y","MEAN_MOTION_DOT":"-0.00718340","SITE":"AFWTR","INCLINATION":"53.2174","DECAY_DATE":null,"FILE":"3502557","TLE_LINE2":"2 52555  53.2174  83.8248 0001389  55.5384  54.3032 15.38268181  1304","OBJECT_TYPE":"PAYLOAD","MEAN_MOTION":"15.38268181","CENTER_NAME":"EARTH","ELEMENT_SET_NO":"999","RA_OF_ASC_NODE":"83.8248","EPHEMERIS_TYPE":"0","NORAD_CAT_ID":"52555","EPOCH":"2022-06-25T22:00:00.999936","BSTAR":"-0.02031500000000","PERIAPSIS":"450.284","ARG_OF_PERICENTER":"55.5384","REV_AT_EPOCH":"130","RCS_SIZE":"LARGE","PERIOD":"93.612","LAUNCH_DATE":"2022-05-13","TIME_SYSTEM":"UTC"},{"MEAN_MOTION_DDOT":"0.0000000000000","ECCENTRICITY":"0.00020310","GP_ID":"206858237","MEAN_ANOMALY":"106.5784","APOAPSIS":"521.963","CLASSIFICATION_TYPE":"U","OBJECT_NAME":"STARLINK-3763","COUNTRY_CODE":"US","SEMIMAJOR_AXIS":"6898.697","MEAN_ELEMENT_THEORY":"SGP4","TLE_LINE1":"1 52556U 22051Z   22176.91667824 -.00845256  00000-0 -47829-1 0  9997","OBJECT_ID":"2022-051Z","REF_FRAME":"TEME","SITE":"AFWTR","INCLINATION":"53.2173","MEAN_MOTION_DOT":"-0.00845256","FILE":"3502557","DECAY_DATE":null,"MEAN_MOTION":"15.15137929","CENTER_NAME":"EARTH","ELEMENT_SET_NO":"999","TLE_LINE2":"2 52556  53.2173  87.0416 0002031  35.8163 106.5784 15.15137929  1302","OBJECT_TYPE":"PAYLOAD","PERIAPSIS":"519.161","REV_AT_EPOCH":"130","ARG_OF_PERICENTER":"35.8163","EPHEMERIS_TYPE":"0","RA_OF_ASC_NODE":"87.0416","NORAD_CAT_ID":"52556","EPOCH":"2022-06-25T22:00:00.999936","BSTAR":"-0.04782900000000","RCS_SIZE":"LARGE","PERIOD":"95.041","LAUNCH_DATE":"2022-05-13","TIME_SYSTEM":"UTC"},{"INCLINATION":"53.2174","SITE":"AFWTR","MEAN_MOTION_DOT":"-0.00717775","OBJECT_ID":"2022-051AA","COUNTRY_CODE":"US","SEMIMAJOR_AXIS":"6827.609","MEAN_ELEMENT_THEORY":"SGP4","TLE_LINE1":"1 52557U 22051AA  22176.91667824 -.00717775  00000-0 -19905-1 0  9996","REF_FRAME":"TEME","CLASSIFICATION_TYPE":"U","OBJECT_NAME":"STARLINK-3943","ECCENTRICITY":"0.00014100","GP_ID":"206858548","MEAN_MOTION_DDOT":"0.0000000000000","APOAPSIS":"450.436","MEAN_ANOMALY":"70.6697","LAUNCH_DATE":"2022-05-13","PERIOD":"93.576","TIME_SYSTEM":"UTC","RCS_SIZE":"LARGE","REV_AT_EPOCH":"130","PERIAPSIS":"448.511","ARG_OF_PERICENTER":"57.5559","NORAD_CAT_ID":"52557","EPOCH":"2022-06-25T22:00:00.999936","BSTAR":"-0.01990500000000","EPHEMERIS_TYPE":"0","RA_OF_ASC_NODE":"83.8499","ELEMENT_SET_NO":"999","MEAN_MOTION":"15.38862531","CENTER_NAME":"EARTH","OBJECT_TYPE":"PAYLOAD","TLE_LINE2":"2 52557  53.2174  83.8499 0001410  57.5559  70.6697 15.38862531  1302","FILE":"3502557","DECAY_DATE":null},{"INCLINATION":"53.2161","SITE":"AFWTR","MEAN_MOTION_DOT":"0.00009495","OBJECT_ID":"2022-051AB","COUNTRY_CODE":"US","SEMIMAJOR_AXIS":"6727.867","TLE_LINE1":"1 52558U 22051AB  22176.91667824  .00009495  00000-0  71966-4 0  9996","MEAN_ELEMENT_THEORY":"SGP4","REF_FRAME":"TEME","CLASSIFICATION_TYPE":"U","OBJECT_NAME":"STARLINK-3954","ECCENTRICITY":"0.00022560","GP_ID":"206857994","MEAN_MOTION_DDOT":"0.0000000000000","APOAPSIS":"351.250","MEAN_ANOMALY":"322.3386","LAUNCH_DATE":"2022-05-13","PERIOD":"91.533","TIME_SYSTEM":"UTC","RCS_SIZE":"LARGE","ARG_OF_PERICENTER":"25.2223","PERIAPSIS":"348.214","REV_AT_EPOCH":"130","EPOCH":"2022-06-25T22:00:00.999936","NORAD_CAT_ID":"52558","BSTAR":"0.00007196600000","RA_OF_ASC_NODE":"80.3409","EPHEMERIS_TYPE":"0","ELEMENT_SET_NO":"999","MEAN_MOTION":"15.73209777","CENTER_NAME":"EARTH","OBJECT_TYPE":"PAYLOAD","TLE_LINE2":"2 52558  53.2161  80.3409 0002256  25.2223 322.3386 15.73209777  1309","FILE":"3502557","DECAY_DATE":null},{"BSTAR":"0.00005295400000","NORAD_CAT_ID":"52559","EPOCH":"2022-06-25T22:00:00.999936","EPHEMERIS_TYPE":"0","RA_OF_ASC_NODE":"80.3440","REV_AT_EPOCH":"130","PERIAPSIS":"348.186","ARG_OF_PERICENTER":"24.4629","TIME_SYSTEM":"UTC","LAUNCH_DATE":"2022-05-13","PERIOD":"91.532","RCS_SIZE":"LARGE","DECAY_DATE":null,"FILE":"3502557","OBJECT_TYPE":"PAYLOAD","TLE_LINE2":"2 52559  53.2164  80.3440 0002224  24.4629 321.8466 15.73227259  1302","ELEMENT_SET_NO":"999","CENTER_NAME":"EARTH","MEAN_MOTION":"15.73227259","REF_FRAME":"TEME","OBJECT_ID":"2022-051AC","TLE_LINE1":"1 52559U 22051AC  22176.91667824  .00006825  00000-0  52954-4 0  9997","MEAN_ELEMENT_THEORY":"SGP4","COUNTRY_CODE":"US","SEMIMAJOR_AXIS":"6727.817","MEAN_MOTION_DOT":"0.00006825","INCLINATION":"53.2164","SITE":"AFWTR","APOAPSIS":"351.179","MEAN_ANOMALY":"321.8466","GP_ID":"206858097","ECCENTRICITY":"0.00022240","MEAN_MOTION_DDOT":"0.0000000000000","OBJECT_NAME":"STARLINK-3953","CLASSIFICATION_TYPE":"U"}];
